From: horizons@ssd.jpl.nasa.gov (Horizons Ephemeris System)
Subject: [Horizons] SMALL BODY #C(500@10)_T(BATTERS (C/2001 W2)) (1/1)
Date: February 16, 2021 at 11:00:33 AM PST

Automated mail xmit by MAIL_REQUEST, PID= 22446 Tue Feb 16 11:00:33 2021
++++++++++++++++++++++++++++++++ (part 1 of 1)  +++++++++++++++++++++++++++++++


*******************************************************************************
Ephemeris / MAIL_REQUEST Tue Feb 16 11:00:33 2021 Pasadena, USA  / Horizons
*******************************************************************************
Target body name: BATTERS (C/2001 W2)             {source: JPL#22}
Center body name: Sun (10)                        {source: DE431}
Center-site name: BODY CENTER
*******************************************************************************
Start time      : A.D. 1998-Dec-23 00:00:00.0000 TDB
Stop  time      : A.D. 2004-Dec-23 00:00:00.0000 TDB
Step-size       : 20160 minutes
*******************************************************************************
Center geodetic : 0.00000000,0.00000000,0.0000000 {E-lon(deg),Lat(deg),Alt(km)}
Center cylindric: 0.00000000,0.00000000,0.0000000 {E-lon(deg),Dxy(km),Dz(km)}
Center radii    : 696000.0 x 696000.0 x 696000.0 k{Equator, meridian, pole}    
Small perturbers: Yes                             {source: SB431-N16}
Output units    : AU-D
Output type     : GEOMETRIC cartesian states
Output format   : 3 (position, velocity, LT, range, range-rate)
Reference frame : Ecliptic of J2000.0
*******************************************************************************
Initial IAU76/J2000 heliocentric ecliptic osculating elements (au, days, deg.):
 EPOCH=  2452249.5 ! 2001-Dec-06.0000000 (TDB)    RMSW= n.a.                  
  EC= .94137345823561     QR= 1.051064641046627   TP= 2452267.418276723       
  OM= 113.3558967703675   W= 142.0857566250761    IN= 115.9130896558433       
 Equivalent ICRF heliocentric equatorial cartesian coordinates (au, au/d):
  X= 5.945474813772439E-01  Y=-6.447658438751167E-01  Z= 6.481151537738093E-01
 VX= 9.141552645632481E-04 VY=-1.170019138032596E-02 VZ=-1.970931302849984E-02
Comet physical (GM= km^3/s^2; RAD= km):                                        
  GM= n.a.                RAD= n.a.                                           
  M1=  12.1     M2=  n.a.     k1=  11.    k2= n.a.     PHCOF= n.a.            
*******************************************************************************
           JDTDB,            Calendar Date (TDB),                      X,                      Y,                      Z,                     VX,                     VY,                     VZ,                     LT,                     RG,                     RR,
**************************************************************************************************************************************************************************************************************************************************************************
$$SOE
2452626.500000000, A.D. 2002-Dec-18 00:00:00.0000, -1.751170581277742E+00, -9.418136715040959E-01, -4.077412397494763E+00, -5.777748240200340E-03,  3.023648955037433E-03, -8.450160875811942E-03,  2.620004754237992E-02,  4.536397607773004E+00,  9.197804765823657E-03,
2452640.500000000, A.D. 2003-Jan-01 00:00:00.0000, -1.831521507219535E+00, -8.992028316699410E-01, -4.194470819195120E+00, -5.701444343068316E-03,  3.062766138803752E-03, -8.274089137373184E-03,  2.693932452107274E-02,  4.664399448693297E+00,  9.088778922181955E-03,
2452654.500000000, A.D. 2003-Jan-15 00:00:00.0000, -1.910824300900012E+00, -8.560784297357864E-01, -4.309130241781335E+00, -5.627986350977971E-03,  3.097121617791747E-03, -8.107309522782305E-03,  2.766993102567523E-02,  4.790900043562105E+00,  8.983315520276623E-03,
2452668.500000000, A.D. 2003-Jan-29 00:00:00.0000, -1.989117672654766E+00, -8.125028525958182E-01, -4.421515206330374E+00, -5.557217561860065E-03,  3.127310565712284E-03, -7.949044347712243E-03,  2.839214895481795E-02,  4.915948201614271E+00,  8.881263507283589E-03,
2452682.500000000, A.D. 2003-Feb-12 00:00:00.0000, -2.066438285916587E+00, -7.685308437233735E-01, -4.531739977014823E+00, -5.488997401397099E-03,  3.153830855645061E-03, -7.798601683909764E-03,  2.910624826622538E-02,  5.039590664580840E+00,  8.782477795260415E-03,
2452696.500000000, A.D. 2003-Feb-26 00:00:00.0000, -2.142820848284358E+00, -7.242107172463401E-01, -4.639909668688116E+00, -5.423187901838522E-03,  3.177107362064427E-03, -7.655364418560138E-03,  2.981248722207946E-02,  5.161872149172432E+00,  8.686814199567277E-03,
2452710.500000000, A.D. 2003-Mar-12 00:00:00.0000, -2.218298189255970E+00, -6.795852567658535E-01, -4.746121217924826E+00, -5.359659140154397E-03,  3.197506627978558E-03, -7.518779852716203E-03,  3.051111254675311E-02,  5.282835374389975E+00,  8.594131972165249E-03,
2452724.500000000, A.D. 2003-Mar-26 00:00:00.0000, -2.292901379137046E+00, -6.346924815509750E-01, -4.850464226674320E+00, -5.298289395632530E-03,  3.215343611002058E-03, -7.388351694056276E-03,  3.120235978740614E-02,  5.402521123959925E+00,  8.504295527721925E-03,
2452738.500000000, A.D. 2003-Apr-09 00:00:00.0000, -2.366659806420496E+00, -5.895663267530463E-01, -4.953021706183067E+00, -5.238958215260590E-03,  3.230889268662916E-03, -7.263633696307363E-03,  3.188645369992332E-02,  5.520968313157394E+00,  8.417172685111654E-03,
2452752.500000000, A.D. 2003-Apr-23 00:00:00.0000, -2.439601185407686E+00, -5.442371069086497E-01, -5.053870726777340E+00, -5.181551572081751E-03,  3.244392176572253E-03, -7.144221937286067E-03,  3.256360840860402E-02,  5.638214016455548E+00,  8.332634185750922E-03,
2452766.500000000, A.D. 2003-May-07 00:00:00.0000, -2.511751789644362E+00, -4.987318839866419E-01, -5.153082967798244E+00, -5.125974563201607E-03,  3.256064617732759E-03, -7.029750062091266E-03,  3.323402806231915E-02,  5.754293581135643E+00,  8.250562329682258E-03,
2452780.500000000, A.D. 2003-May-21 00:00:00.0000, -2.583136565929743E+00, -4.530749897525189E-01, -5.250725229506612E+00, -5.072131897333508E-03,  3.266088118472696E-03, -6.919886531831004E-03,  3.389790750333917E-02,  5.869240743091036E+00,  8.170843798641770E-03,
2452794.500000000, A.D. 2003-Jun-04 00:00:00.0000, -2.653779150432244E+00, -4.072883511390214E-01, -5.346859884501996E+00, -5.019932524793004E-03,  3.274625053719232E-03, -6.814329700387586E-03,  3.455543258320531E-02,  5.983087681518560E+00,  8.093369899373955E-03,
2452808.500000000, A.D. 2003-Jun-18 00:00:00.0000, -2.723701949654714E+00, -3.613917509698997E-01, -5.441545271502091E+00, -4.969291821057084E-03,  3.281819316711308E-03, -6.712804467494625E-03,  3.520678059910255E-02,  6.095865094474182E+00,  8.018037808137021E-03,
2452822.500000000, A.D. 2003-Jul-02 00:00:00.0000, -2.792926214192717E+00, -3.154030904850072E-01, -5.534836049438586E+00, -4.920127730010103E-03,  3.287796223433671E-03, -6.615059936810891E-03,  3.585212075074113E-02,  6.207602277979581E+00,  7.944749457768964E-03,
2452836.500000000, A.D. 2003-Jul-16 00:00:00.0000, -2.861472025757103E+00, -2.693385697629762E-01, -5.626783517311260E+00, -4.872357792467873E-03,  3.292677176872527E-03, -6.520866114331943E-03,  3.649161436824405E-02,  6.318327165479650E+00,  7.873408772439916E-03,
2452850.500000000, A.D. 2003-Jul-30 00:00:00.0000, -2.929358449938135E+00, -2.232127217403583E-01, -5.717435875593408E+00, -4.825919907564957E-03,  3.296573373481465E-03, -6.430010417853705E-03,  3.712541541698356E-02,  6.428066415252198E+00,  7.803930629790556E-03,
2452864.500000000, A.D. 2003-Aug-13 00:00:00.0000, -2.996603719466858E+00, -1.770386882864907E-01, -5.806838476923774E+00, -4.780754195476574E-03,  3.299575142279774E-03, -6.342298350133685E-03,  3.775367126015101E-02,  6.536845542442871E+00,  7.736235331287604E-03,
2452878.500000000, A.D. 2003-Aug-27 00:00:00.0000, -3.063225231656875E+00, -1.308284064527908E-01, -5.895034061911482E+00, -4.736802429550354E-03,  3.301764754929744E-03, -6.257550847936938E-03,  3.837652294200263E-02,  6.644688968107602E+00,  7.670246679047984E-03,
2452892.500000000, A.D. 2003-Sep-10 00:00:00.0000, -3.129239603947982E+00, -8.459272047483081E-02, -5.982062961665395E+00, -4.694011476641833E-03,  3.303215708462902E-03, -6.175602553198076E-03,  3.899410553891398E-02,  6.751620079995824E+00,  7.605893297017999E-03,
2452906.500000000, A.D. 2003-Sep-24 00:00:00.0000, -3.194662736807399E+00, -3.834152164883789E-02, -6.067963282523773E+00, -4.652330994796352E-03,  3.303990248636465E-03, -6.096300924319475E-03,  3.960654853494168E-02,  6.857661297576949E+00,  7.543107829047784E-03,
2452920.500000000, A.D. 2003-Oct-08 00:00:00.0000, -3.259509790982656E+00,  7.916121442664049E-03, -6.152771080727759E+00, -4.611705434461059E-03,  3.304147219463780E-03, -6.019505182084032E-03,  4.021397598753806E-02,  6.962834100733001E+00,  7.481823018954423E-03,
2452934.500000000, A.D. 2003-Oct-22 00:00:00.0000, -3.323795216316001E+00,  5.417201073941345E-02, -6.236520502763506E+00, -4.572092739628638E-03,  3.303748270817873E-03, -5.945083079862076E-03,  4.081650672215242E-02,  7.067159063452744E+00,  7.421978578745036E-03,
2452948.500000000, A.D. 2003-Nov-05 00:00:00.0000, -3.387532941385490E+00,  1.004186835655068E-01, -6.319243912689366E+00, -4.533455731645433E-03,  3.302837266815223E-03, -5.872912494082110E-03,  4.141425497454827E-02,  7.170655965045490E+00,  7.363519318874082E-03,
2452962.500000000, A.D. 2003-Nov-19 00:00:00.0000, -3.450736337938977E+00,  1.466492489599963E-01, -6.400972030863414E+00, -4.495753322067652E-03,  3.301453619657539E-03, -5.802880363771809E-03,  4.200733052043654E-02,  7.273343812586390E+00,  7.306390475266210E-03,
2452976.500000000, A.D. 2003-Dec-03 00:00:00.0000, -3.513418211196663E+00,  1.928573517431627E-01, -6.481734049608168E+00, -4.458946020666643E-03,  3.299634139850974E-03, -5.734881344119517E-03,  4.259583879811543E-02,  7.375240862150852E+00,  7.250539681592631E-03,
